1998-067XX              
1 66911U 98067XX  25343.11695649  .00085582  00000+0  14246-2 0  9997
2 66911  51.6296 160.3494 0005703 191.2268 168.8595 15.51276485  1046
1998-067XY              
1 66912U 98067XY  25342.79680750  .00056065  00000+0  96272-3 0  9992
2 66912  51.6301 161.9610 0005043 202.8278 157.2488 15.50590071   993
2025-284A               
1 66913U 25284A   25344.29134888  .00011983  00000+0  57222-3 0  9999
2 66913  80.4046 132.8683 0011944 211.9522 148.0982 15.18889288   753
2025-284B               
1 66914U 25284B   25344.29087782  .00014751  00000+0  70602-3 0  9993
2 66914  80.4056 132.8693 0008158 254.6684 105.3642 15.18843698   756
HULIANWANG DIGUI 14A    
1 66915U 25285A   25344.21320404 -.00000131  00000+0  12826-4 0  9991
2 66915  50.0034 127.5821 0008104 274.1801  85.8178 14.05466330   552
HULIANWANG DIGUI 14B    
1 66916U 25285B   25344.21307072 -.00000131  00000+0  12834-4 0  9997
2 66916  50.0045 127.5825 0006960 268.8886  91.1222 14.05512718   552
HULIANWANG DIGUI 14C    
1 66917U 25285C   25344.28397170 -.00000154  00000+0 -14694-5 0  9996
2 66917  50.0009 127.2877 0007532 276.7703  83.2344 14.05578819   561
HULIANWANG DIGUI 14D    
1 66918U 25285D   25344.21254385 -.00000145  00000+0  42398-5 0  9991
2 66918  50.0042 127.5783 0006455 271.7014  88.3151 14.05703345   556
HULIANWANG DIGUI 14E    
1 66919U 25285E   25344.21249275 -.00000161  00000+0 -56807-5 0  9993
2 66919  50.0056 127.5808 0007862 283.0794  76.9234 14.05714488   559
HULIANWANG DIGUI 14F    
1 66920U 25285F   25343.85672775  .00000334  00000+0  26469-3 0  9998
2 66920  50.0040 128.9355 0030596 264.6131  95.1286 14.11847534   507
HULIANWANG DIGUI 14G    
1 66921U 25285G   25344.21204440  .00000247  00000+0  24257-3 0  9996
2 66921  50.0104 127.5836 0006976 286.6615  73.3524 14.05883409   556
HULIANWANG DIGUI 14H    
1 66922U 25285H   25344.28281111 -.00000156  00000+0 -24152-5 0  9991
2 66922  50.0078 127.2880 0006934 293.1254  66.8920 14.05998119   562
